     2.100          NAVIGATION                              RINEX VERSION / TYPE
fic2rin                                 05/25/2015 00:24:15 PGM / RUN BY / DATE
                                                            END OF HEADER
11 15  5 24  1 59 44.0 -.580247025937D-03 -.250111042988D-11  .000000000000D+00
     .120000000000D+02 -.614687500000D+02  .602632244909D-08  .186836965778D+01
    -.347010791302D-05  .157744861208D-01  .827200710773D-05  .515374121857D+04
     .718400000000D+04  .800937414169D-07 -.227586661667D+01 -.376254320145D-06
     .893067753457D+00  .183343750000D+03  .140367870968D+01 -.856928551657D-08
     .807176479283D-10  .100000000000D+01  .184600000000D+04  .000000000000D+00
     .240000000000D+01  .000000000000D+00 -.121071934700D-07  .120000000000D+02
     .132600000000D+04  .400000000000D+01
32 15  5 24  1 59 44.0 -.143561977893D-03  .966338120634D-11  .000000000000D+00
     .550000000000D+02  .234375000000D+02  .494270588354D-08  .227500320827D+01
     .117346644402D-05  .112578880507D-01  .722520053387D-05  .515376401901D+04
     .718400000000D+04 -.219792127609D-06 -.802514710153D+00  .184401869774D-06
     .946876851599D+00  .234437500000D+03  .491049095080D-01 -.817641200895D-08
    -.632169189527D-10  .100000000000D+01  .184600000000D+04  .000000000000D+00
     .240000000000D+01  .000000000000D+00 -.372529029846D-08  .550000000000D+02
     .390600000000D+04  .400000000000D+01
 4 15  5 24  1 59 44.0 -.159498304129D-04 -.147792889038D-11  .000000000000D+00
     .260000000000D+02 -.329375000000D+02  .492556231230D-08  .219702718915D+01
    -.191666185856D-05  .112886918942D-01  .929832458496D-05  .515369535065D+04
     .718400000000D+04 -.335276126862D-07 -.194755990330D+01 -.247731804848D-06
     .939656955890D+00  .188187500000D+03  .105801080868D+01 -.801747681723D-08
     .133219834855D-09  .100000000000D+01  .184600000000D+04  .000000000000D+00
     .240000000000D+01  .000000000000D+00 -.651925802231D-08  .260000000000D+02
     .585600000000D+04  .400000000000D+01
27 15  5 24  1 59 44.0  .740885734558D-04  .272848410532D-11  .000000000000D+00
     .000000000000D+00 -.716562500000D+02  .454054627483D-08 -.168029017424D+01
    -.388734042645D-05  .247380195651D-02  .575557351112D-05  .515369228172D+04
     .718400000000D+04  .577419996262D-07 -.298211547578D+01 -.540167093277D-07
     .967600841693D+00  .271656250000D+03  .213806869983D+00 -.812783855710D-08
     .382158775590D-10  .100000000000D+01  .184600000000D+04  .000000000000D+00
     .240000000000D+01  .000000000000D+00  .139698386192D-08  .000000000000D+00
     .642600000000D+04  .400000000000D+01
 4 15  5 24  3 59 44.0 -.159610062838D-04 -.147792889038D-11  .000000000000D+00
     .270000000000D+02 -.446562500000D+02  .499735101687D-08 -.303593689608D+01
    -.239163637161D-05  .112902123947D-01  .931508839130D-05  .515369235039D+04
     .143840000000D+05  .117346644402D-06 -.194761751009D+01 -.203028321266D-06
     .939658028209D+00  .186406250000D+03  .105796122600D+01 -.800140471919D-08
     .168578450541D-09  .100000000000D+01  .184600000000D+04  .000000000000D+00
     .240000000000D+01  .000000000000D+00 -.651925802231D-08  .270000000000D+02
     .720600000000D+04  .400000000000D+01
11 15  5 24  3 59 44.0 -.580265186727D-03 -.250111042988D-11  .000000000000D+00
     .220000000000D+02 -.686250000000D+02  .601917929441D-08  .291854913829D+01
    -.367872416973D-05  .157753053354D-01  .806897878647D-05  .515373953247D+04
     .143840000000D+05  .203028321266D-06 -.227592730729D+01 -.182539224625D-06
     .893068603412D+00  .184968750000D+03  .140364964003D+01 -.844642325600D-08
     .617882880159D-10  .100000000000D+01  .184600000000D+04  .000000000000D+00
     .240000000000D+01  .000000000000D+00 -.121071934700D-07  .220000000000D+02
     .720600000000D+04  .400000000000D+01
27 15  5 24  3 59 44.0  .741081312299D-04  .272848410532D-11  .000000000000D+00
     .700000000000D+01 -.671250000000D+02  .453947480163D-08 -.630500570171D+00
    -.344961881638D-05  .247372791637D-02  .539049506187D-05  .515369058800D+04
     .143840000000D+05  .968575477600D-07 -.298217388571D+01  .111758708954D-07
     .967600933857D+00  .278031250000D+03  .214187749482D+00 -.817034032747D-08
     .103575742917D-10  .100000000000D+01  .184600000000D+04  .000000000000D+00
     .240000000000D+01  .000000000000D+00  .139698386192D-08  .700000000000D+01
     .720600000000D+04  .400000000000D+01
32 15  5 24  3 59 44.0 -.143492594361D-03  .966338120634D-11  .000000000000D+00
     .560000000000D+02  .247187500000D+02  .494449167221D-08 -.295804276526D+01
     .109151005745D-05  .112584453309D-01  .722706317902D-05  .515376297379D+04
     .143840000000D+05 -.225380063057D-06 -.802573370242D+00 -.298023223877D-07
     .946877233420D+00  .230375000000D+03  .490947129690D-01 -.804640659370D-08
     .321441960776D-11  .100000000000D+01  .184600000000D+04  .000000000000D+00
     .240000000000D+01  .000000000000D+00 -.372529029846D-08  .560000000000D+02
     .720600000000D+04  .400000000000D+01
 1 15  5 24  4  0  0.0 -.520190224051D-05  .454747350886D-12  .000000000000D+00
     .820000000000D+02 -.341250000000D+02  .450983070969D-08 -.277803207952D+01
    -.184215605259D-05  .425741088111D-02  .977702438831D-05  .515366769218D+04
     .144000000000D+05 -.633299350739D-07 -.192538887803D+01 -.875443220139D-07
     .961956388796D+00  .193093750000D+03  .377544208609D+00 -.785639867911D-08
     .166792661870D-09  .100000000000D+01  .184600000000D+04  .000000000000D+00
     .240000000000D+01  .000000000000D+00  .558793544769D-08  .820000000000D+02
     .720600000000D+04  .400000000000D+01
 2 15  5 24  4  0  0.0  .567710492760D-03  .238742359215D-11  .000000000000D+00
     .750000000000D+02 -.396875000000D+02  .496127808572D-08 -.234016403137D+01
    -.206567347050D-05  .145727379713D-01  .982545316219D-05  .515356659508D+04
     .144000000000D+05  .242143869400D-06 -.196289346598D+01 -.949949026108D-07
     .940605450530D+00  .174843750000D+03 -.226364089910D+01 -.801854829044D-08
     .281440294547D-09  .100000000000D+01  .184600000000D+04  .000000000000D+00
     .240000000000D+01  .000000000000D+00 -.204890966415D-07  .750000000000D+02
     .720600000000D+04  .400000000000D+01
 3 15  5 24  4  0  0.0  .334685668349D-03  .920863385545D-11  .000000000000D+00
     .460000000000D+02  .250000000000D+02  .475198365348D-08 -.876295192869D+00
     .123865902424D-05  .896504148841D-03  .717863440514D-05  .515367888069D+04
     .144000000000D+05 -.465661287308D-07 -.884482990290D+00 -.186264514923D-08
     .959143269013D+00  .238750000000D+03 -.261710850144D+01 -.807890794752D-08
     .896465912832D-10  .100000000000D+01  .184600000000D+04  .000000000000D+00
     .240000000000D+01  .000000000000D+00  .186264514923D-08  .460000000000D+02
     .720600000000D+04  .400000000000D+01
 5 15  5 24  4  0  0.0 -.237904954702D-03  .454747350886D-11  .000000000000D+00
     .300000000000D+02  .234062500000D+02  .515164315804D-08  .146453101960D+00
     .120513141155D-05  .413658679463D-02  .683404505253D-05  .515355720901D+04
     .144000000000D+05  .260770320892D-07 -.891462630963D+00  .447034835815D-07
     .946363096713D+00  .236531250000D+03  .371622848726D+00 -.836641992354D-08
     .142863093678D-10  .100000000000D+01  .184600000000D+04  .000000000000D+00
     .240000000000D+01  .000000000000D+00 -.107102096081D-07  .300000000000D+02
     .720600000000D+04  .400000000000D+01
 6 15  5 24  4  0  0.0  .167910475284D-03  .909494701773D-11  .000000000000D+00
     .990000000000D+02 -.274062500000D+02  .461519224128D-08 -.120617535656D+01
    -.134669244289D-05  .146684236825D-03  .980123877525D-05  .515375549698D+04
     .144000000000D+05 -.204890966415D-07 -.193389529900D+01  .409781932831D-07
     .961844152258D+00  .192687500000D+03 -.274195541519D+01 -.794890253227D-08
     .175007289756D-09  .100000000000D+01  .184600000000D+04  .000000000000D+00
     .240000000000D+01  .000000000000D+00  .419095158577D-08  .990000000000D+02
     .720600000000D+04  .400000000000D+01
 7 15  5 24  4  0  0.0  .464145094156D-03  .250111042988D-11  .000000000000D+00
     .420000000000D+02  .492812500000D+02  .401088135502D-08  .286141272807D+01
     .256672501564D-05  .837486970704D-02  .838935375214D-05  .515372174263D+04
     .144000000000D+05 -.633299350739D-07  .123459065747D+01 -.800937414169D-07
     .970202069496D+00  .223125000000D+03 -.275559101274D+01 -.775639451354D-08
    -.171435712414D-10  .100000000000D+01  .184600000000D+04  .000000000000D+00
     .240000000000D+01  .000000000000D+00 -.111758708954D-07  .420000000000D+02
     .720600000000D+04  .400000000000D+01
 8 15  5 24  4  0  0.0 -.220938120037D-03 -.159161572810D-11  .000000000000D+00
     .600000000000D+01  .316875000000D+02  .534772275412D-08  .404372992421D+00
     .160187482834D-05  .774150353391D-02  .515021383762D-05  .515371062088D+04
     .144000000000D+05 -.707805156708D-07  .227710751938D+01  .670552253723D-07
     .982946943046D+00  .292406250000D+03  .879008300258D+00 -.812676708390D-08
     .218223375594D-09  .100000000000D+01  .184600000000D+04  .000000000000D+00
     .240000000000D+01  .630000000000D+02 -.190921127796D-07  .600000000000D+01
     .720600000000D+04  .400000000000D+01
 9 15  5 24  4  0  0.0 -.160765834153D-03 -.579802872380D-11  .000000000000D+00
     .460000000000D+02  .528125000000D+01  .464626496416D-08 -.143450970673D+01
     .217929482460D-06  .456687412225D-03  .721961259842D-05  .515359340858D+04
     .144000000000D+05 -.149011611938D-07  .158337292527D+00 -.186264514923D-08
     .957834075828D+00  .237937500000D+03  .269504992548D+01 -.810926635492D-08
    -.360372153804D-09  .100000000000D+01  .184600000000D+04  .000000000000D+00
     .240000000000D+01  .000000000000D+00  .465661287308D-09  .460000000000D+02
     .720600000000D+04  .400000000000D+01
